{
  "type": "FeatureCollection",
  "features": [
    {
      "type": "Feature",
      "properties": {
        "norad_id": 43783,
        "name": "KAZSTSAT",
        "group": "resource",
        "lat": 57.38468101754253,
        "lon": -134.82524705961325,
        "alt_km": 567.2880165539918,
        "timestamp": "2025-12-24T16:52:41.158047+00:00",
        "meta_object_name": "KAZSTSAT",
        "meta_object_id": "2018-099AB",
        "meta_epoch": "2025-12-24T01:55:16.634496",
        "meta_mean_motion": 14.99370075,
        "meta_eccentricity": 0.00062228,
        "meta_inclination": 97.4517,
        "meta_ra_of_asc_node": 32.7761,
        "meta_arg_of_pericenter": 279.4355,
        "meta_mean_anomaly": 80.6165,
        "meta_ephemeris_type": 0,
        "meta_classification_type": "U",
        "meta_norad_cat_id": 43783,
        "meta_element_set_no": 999,
        "meta_rev_at_epoch": 38506,
        "meta_bstar": 5.1050347e-05,
        "meta_mean_motion_dot": 5.69e-06,
        "meta_mean_motion_ddot": 0,
        "tle_line1": "1 43783U 18099AB  25358.08005364  .00000569  00000+0  51050-4 0  9995",
        "tle_line2": "2 43783  97.4517  32.7761 0006222 279.4355  80.6165 14.99370075385066"
      },
      "geometry": {
        "type": "Point",
        "coordinates": [
          -134.82524705961325,
          57.38468101754253
        ]
      }
    },
    {
      "type": "Feature",
      "properties": {
        "norad_id": 43831,
        "name": "SAUDISAT 5A",
        "group": "resource",
        "lat": -47.782981365750615,
        "lon": -129.49692922140707,
        "alt_km": 502.8116577350211,
        "timestamp": "2025-12-24T16:52:41.158058+00:00",
        "meta_object_name": "SAUDISAT 5A",
        "meta_object_id": "2018-102A",
        "meta_epoch": "2025-12-24T08:00:40.715712",
        "meta_mean_motion": 15.25794628,
        "meta_eccentricity": 0.0011124,
        "meta_inclination": 97.3331,
        "meta_ra_of_asc_node": 58.3009,
        "meta_arg_of_pericenter": 40.2367,
        "meta_mean_anomaly": 319.9692,
        "meta_ephemeris_type": 0,
        "meta_classification_type": "U",
        "meta_norad_cat_id": 43831,
        "meta_element_set_no": 999,
        "meta_rev_at_epoch": 38899,
        "meta_bstar": 0.00026935471,
        "meta_mean_motion_dot": 6.824e-05,
        "meta_mean_motion_ddot": 0,
        "tle_line1": "1 43831U 18102A   25358.33380458  .00006824  00000+0  26935-3 0  9995",
        "tle_line2": "2 43831  97.3331  58.3009 0011124  40.2367 319.9692 15.25794628388998"
      },
      "geometry": {
        "type": "Point",
        "coordinates": [
          -129.49692922140707,
          -47.782981365750615
        ]
      }
    },
    {
      "type": "Feature",
      "properties": {
        "norad_id": 43833,
        "name": "SAUDISAT 5B",
        "group": "resource",
        "lat": -63.69215379261955,
        "lon": 76.54218992171712,
        "alt_km": 496.7631667656224,
        "timestamp": "2025-12-24T16:52:41.158068+00:00",
        "meta_object_name": "SAUDISAT 5B",
        "meta_object_id": "2018-102C",
        "meta_epoch": "2025-12-24T07:43:09.373728",
        "meta_mean_motion": 15.26141727,
        "meta_eccentricity": 0.00118689,
        "meta_inclination": 97.3427,
        "meta_ra_of_asc_node": 61.0484,
        "meta_arg_of_pericenter": 42.3429,
        "meta_mean_anomaly": 317.8723,
        "meta_ephemeris_type": 0,
        "meta_classification_type": "U",
        "meta_norad_cat_id": 43833,
        "meta_element_set_no": 999,
        "meta_rev_at_epoch": 38910,
        "meta_bstar": 0.00026293908,
        "meta_mean_motion_dot": 6.731e-05,
        "meta_mean_motion_ddot": 0,
        "tle_line1": "1 43833U 18102C   25358.32163627  .00006731  00000+0  26294-3 0  9998",
        "tle_line2": "2 43833  97.3427  61.0484 0011868  42.3429 317.8723 15.26141727389104"
      },
      "geometry": {
        "type": "Point",
        "coordinates": [
          76.54218992171712,
          -63.69215379261955
        ]
      }
    },
    {
      "type": "Feature",
      "properties": {
        "norad_id": 44622,
        "name": "GAOFEN-10R",
        "group": "resource",
        "lat": 1.0781995689118067,
        "lon": 126.40930744337145,
        "alt_km": 628.1793283752277,
        "timestamp": "2025-12-24T16:52:41.158079+00:00",
        "meta_object_name": "GAOFEN-10R",
        "meta_object_id": "2019-066A",
        "meta_epoch": "2025-12-24T07:58:36.742080",
        "meta_mean_motion": 14.82829819,
        "meta_eccentricity": 0.00070632,
        "meta_inclination": 98.0293,
        "meta_ra_of_asc_node": 305.8847,
        "meta_arg_of_pericenter": 7.8564,
        "meta_mean_anomaly": 352.2758,
        "meta_ephemeris_type": 0,
        "meta_classification_type": "U",
        "meta_norad_cat_id": 44622,
        "meta_element_set_no": 999,
        "meta_rev_at_epoch": 33646,
        "meta_bstar": 0.00020355349,
        "meta_mean_motion_dot": 1.593e-05,
        "meta_mean_motion_ddot": 0,
        "tle_line1": "1 44622U 19066A   25358.33236970  .00001593  00000+0  20355-3 0  9991",
        "tle_line2": "2 44622  98.0293 305.8847 0007063   7.8564 352.2758 14.82829819336468"
      },
      "geometry": {
        "type": "Point",
        "coordinates": [
          126.40930744337145,
          1.0781995689118067
        ]
      }
    },
    {
      "type": "Feature",
      "properties": {
        "norad_id": 44804,
        "name": "CARTOSAT-3",
        "group": "resource",
        "lat": 71.77439758955619,
        "lon": -98.4289389262091,
        "alt_km": 496.5964499514221,
        "timestamp": "2025-12-24T16:52:41.158090+00:00",
        "meta_object_name": "CARTOSAT-3",
        "meta_object_id": "2019-081A",
        "meta_epoch": "2025-12-24T06:55:37.407360",
        "meta_mean_motion": 15.19246362,
        "meta_eccentricity": 0.0013674,
        "meta_inclination": 97.4565,
        "meta_ra_of_asc_node": 57.724,
        "meta_arg_of_pericenter": 47.3431,
        "meta_mean_anomaly": 312.8953,
        "meta_ephemeris_type": 0,
        "meta_classification_type": "U",
        "meta_norad_cat_id": 44804,
        "meta_element_set_no": 999,
        "meta_rev_at_epoch": 33691,
        "meta_bstar": 0.00018102083,
        "meta_mean_motion_dot": 3.755e-05,
        "meta_mean_motion_ddot": 0,
        "tle_line1": "1 44804U 19081A   25358.28862740  .00003755  00000+0  18102-3 0  9993",
        "tle_line2": "2 44804  97.4565  57.7240 0013674  47.3431 312.8953 15.19246362336918"
      },
      "geometry": {
        "type": "Point",
        "coordinates": [
          -98.4289389262091,
          71.77439758955619
        ]
      }
    },
    {
      "type": "Feature",
      "properties": {
        "norad_id": 44819,
        "name": "GAOFEN-12 01",
        "group": "resource",
        "lat": -6.855588042679228,
        "lon": 5.616000305667009,
        "alt_km": 632.5744983917502,
        "timestamp": "2025-12-24T16:52:41.158100+00:00",
        "meta_object_name": "GAOFEN-12 01",
        "meta_object_id": "2019-082A",
        "meta_epoch": "2025-12-24T07:10:40.863648",
        "meta_mean_motion": 14.8067024,
        "meta_eccentricity": 0.00021461,
        "meta_inclination": 97.8125,
        "meta_ra_of_asc_node": 4.2766,
        "meta_arg_of_pericenter": 181.3088,
        "meta_mean_anomaly": 178.812,
        "meta_ephemeris_type": 0,
        "meta_classification_type": "U",
        "meta_norad_cat_id": 44819,
        "meta_element_set_no": 999,
        "meta_rev_at_epoch": 32821,
        "meta_bstar": 6.9547666e-05,
        "meta_mean_motion_dot": 4.84e-06,
        "meta_mean_motion_ddot": 0,
        "tle_line1": "1 44819U 19082A   25358.29908407  .00000484  00000+0  69548-4 0  9999",
        "tle_line2": "2 44819  97.8125   4.2766 0002146 181.3088 178.8120 14.80670240328212"
      },
      "geometry": {
        "type": "Point",
        "coordinates": [
          5.616000305667009,
          -6.855588042679228
        ]
      }
    },
    {
      "type": "Feature",
      "properties": {
        "norad_id": 44873,
        "name": "CSG-1",
        "group": "resource",
        "lat": 11.472080594788547,
        "lon": 1.457808958661567,
        "alt_km": 623.8237401757397,
        "timestamp": "2025-12-24T16:52:41.158111+00:00",
        "meta_object_name": "CSG-1",
        "meta_object_id": "2019-092A",
        "meta_epoch": "2025-12-24T06:23:59.424864",
        "meta_mean_motion": 14.82159281,
        "meta_eccentricity": 0.00014751,
        "meta_inclination": 97.8805,
        "meta_ra_of_asc_node": 179.4172,
        "meta_arg_of_pericenter": 85.5043,
        "meta_mean_anomaly": 274.6338,
        "meta_ephemeris_type": 0,
        "meta_classification_type": "U",
        "meta_norad_cat_id": 44873,
        "meta_element_set_no": 999,
        "meta_rev_at_epoch": 32556,
        "meta_bstar": 6.8227097e-05,
        "meta_mean_motion_dot": 4.91e-06,
        "meta_mean_motion_ddot": 0,
        "tle_line1": "1 44873U 19092A   25358.26666001  .00000491  00000+0  68227-4 0  9999",
        "tle_line2": "2 44873  97.8805 179.4172 0001475  85.5043 274.6338 14.82159281325563"
      },
      "geometry": {
        "type": "Point",
        "coordinates": [
          1.457808958661567,
          11.472080594788547
        ]
      }
    }
  ]
}